[{"OBJECT_NAME":"STARLINK-30162","OBJECT_ID":"2023-105S","EPOCH":"2026-03-09T12:00:01.999296","MEAN_MOTION":15.15634531,"ECCENTRICITY":0.0001626,"INCLINATION":42.9995,"RA_OF_ASC_NODE":249.1935,"ARG_OF_PERICENTER":235.8169,"MEAN_ANOMALY":21.6405,"EPHEMERIS_TYPE":0,"CLASSIFICATION_TYPE":"U","NORAD_CAT_ID":57446,"ELEMENT_SET_NO":999,"REV_AT_EPOCH":572,"BSTAR":0.0046588,"MEAN_MOTION_DOT":0.00091095,"MEAN_MOTION_DDOT":0},{"OBJECT_NAME":"OBJECT B","OBJECT_ID":"2024-094B","EPOCH":"2026-03-09T12:10:50.064096","MEAN_MOTION":15.16273454,"ECCENTRICITY":0.0005004,"INCLINATION":97.397,"RA_OF_ASC_NODE":142.0303,"ARG_OF_PERICENTER":80.1398,"MEAN_ANOMALY":280.04,"EPHEMERIS_TYPE":0,"CLASSIFICATION_TYPE":"U","NORAD_CAT_ID":59806,"ELEMENT_SET_NO":999,"REV_AT_EPOCH":10005,"BSTAR":0.00043893,"MEAN_MOTION_DOT":8.436e-5,"MEAN_MOTION_DDOT":0}]
