STARLINK-30162          
1 57446U 23105S   26068.50002314  .00091095  00000+0  46588-2 0  9990
2 57446  42.9995 249.1935 0001626 235.8169  21.6405 15.15634531  5724
OBJECT B                
1 59806U 24094B   26068.50752389  .00008436  00000+0  43893-3 0  9998
2 59806  97.3970 142.0303 0005004  80.1398 280.0400 15.16273454100054
